#cP2010  5  3  0  0  0.00000000      96 U     WGS84 BRD NCKU
## 1582  86400.00000000   900.00000000 55319 0.0000000000000
+   32   G01G02G03G04G05G06G07G08G09G10G11G12G13G14G15G16G17
+        G18G19G20G21G22G23G24G25G26G27G28G29G30G31G32  0  0
+          0  0  0  0  0  0  0  0  0  0  0  0  0  0  0  0  0
+          0  0  0  0  0  0  0  0  0  0  0  0  0  0  0  0  0
+          0  0  0  0  0  0  0  0  0  0  0  0  0  0  0  0  0
++         0  0  0  0  0  0  0  0  0  0  0  0  0  0  0  0  0
++         0  0  0  0  0  0  0  0  0  0  0  0  0  0  0  0  0
++         0  0  0  0  0  0  0  0  0  0  0  0  0  0  0  0  0
++         0  0  0  0  0  0  0  0  0  0  0  0  0  0  0  0  0
++         0  0  0  0  0  0  0  0  0  0  0  0  0  0  0  0  0
%c G  cc GPS ccc cccc cccc cccc cccc ccccc ccccc ccccc ccccc
%c cc cc ccc ccc cccc cccc cccc cccc ccccc ccccc ccccc ccccc
%f  1.2500000  1.025000000  0.00000000000  0.000000000000000
%f  0.0000000  0.000000000  0.00000000000  0.000000000000000
%i    0    0    0    0      0      0      0      0         0
%i    0    0    0    0      0      0      0      0         0
/*                                                          
/*                                                          
/*                                                          
/*                                                          
*  2010  5  3  6  0  0.00000000
PG01  -7449.910175  21478.401539 -13749.114731   -115.337782
PG02      0.000000      0.000000      0.000000 999999.999999
PG03  22458.030444  10619.864312 -10223.423340    549.943652
PG04  -5441.504029 -25676.618787   2304.946564     73.503703
PG05 -13225.136848  -8113.610473 -21583.522729     -2.278946
PG06  19245.394868  13304.066643 -12520.480090    650.580507
PG07   8623.000748 -16679.497226 -18730.264960     -0.116881
PG08   1357.787359 -24425.769207  -9662.556578      5.206559
PG09 -15695.928930  -4233.219689  20475.734485      4.294794
PG10  -5368.257653 -15565.657694 -20955.756116    -41.706488
PG11  17268.711830  -2159.845197  19865.690048    -60.202554
PG12 -21284.870809   8508.553360  13336.932546   -119.714066
PG13  17954.756211  -6814.071827 -18496.085441    304.812565
PG14   2309.754348  15597.158346  21531.284044     41.131862
PG15 -25830.658734  -6441.431257   -479.193275   -278.515741
PG16   7935.511476  12964.375805 -21712.008155    -67.654997
PG17  -1543.949082 -15931.489614  21328.103700    148.328952
PG18      0.000000      0.000000      0.000000 999999.999999
PG19  25536.884723   7824.467353   1083.733027    -32.245647
PG20  21263.757788 -11409.647692  10899.440443     56.738500
PG21  -6581.380270  19942.636227 -15549.764077    -57.552010
PG22  -8019.806687  21552.502616  13373.847068    173.040666
PG23  24102.626304  -1790.635874 -11395.404015    372.194219
PG24  -2193.361505  24377.356875 -10558.384208    284.102745
PG25      0.000000      0.000000      0.000000 999999.999999
PG26      0.000000      0.000000      0.000000 999999.999999
PG27 -16721.233162  -7085.105668  20117.017251    148.505438
PG28  10118.652427 -21369.309494  12276.223852    -17.138198
PG29 -18575.352337   7341.822520 -17393.441434    117.130578
PG30 -19239.124891  17840.964950   3538.362133    239.159912
PG31   6790.655251  25575.471887    521.532761    -38.754195
PG32  20234.804424  -1478.687685  17306.178179     37.939288
*  2010  5  3  6 15  0.00000000
PG01  -8557.731752  22399.564944 -11403.504919   -115.341465
PG02      0.000000      0.000000      0.000000 999999.999999
PG03  21187.495689  10765.996580 -12564.261843    549.948256
PG04  -4981.378583 -25352.274034   5095.403674     73.511274
PG05 -11573.436111  -9957.757564 -21752.281639     -2.279458
PG06  17641.620943  13290.632563 -14667.762509    650.571094
PG07   9395.890787 -14595.733285 -20066.201276     -0.117188
PG08   1826.582892 -23239.754734 -12226.349403      5.206763
PG09 -16399.537481  -6509.246769  19329.221027      4.296738
PG10  -3695.235031 -17171.653992 -20003.091209    -41.707204
PG11  18343.340963   -122.587144  19046.057282    -60.204703
PG12 -20296.503399   7180.451736  15505.296091   -119.710178
PG13  19831.116234  -6167.667083 -16708.323473    304.812258
PG14    -71.012651  14987.401400  22073.558560     41.135852
PG15 -25565.146222  -6658.921828  -3302.975831   -278.510830
PG16   6189.747012  14701.565294 -21142.854347    -67.658374
PG17    835.315981 -15384.695261  21748.168459    148.331203
PG18      0.000000      0.000000      0.000000 999999.999999
PG19  25427.514290   8043.617361  -1747.102848    -32.248000
PG20  20556.405583 -10165.086077  13217.765119     56.737988
PG21  -7394.324318  18133.462418 -17322.335325    -57.554363
PG22  -9174.766378  22362.036803  11068.688282    173.039745
PG23  25178.249233  -1354.973521  -8867.611688    372.193094
PG24  -2754.510832  23130.942217 -12922.727667    284.105610
PG25      0.000000      0.000000      0.000000 999999.999999
PG26      0.000000      0.000000      0.000000 999999.999999
PG27 -17382.634847  -9060.324006  18674.398900    148.508610
PG28  11108.906002 -22087.385179   9775.139402    -17.137379
PG29 -20378.036061   6711.536134 -15537.408446    117.133136
PG30 -19057.649945  17198.934492   6312.383859    239.163084
PG31   6518.729048  25448.597602   3408.057248    -38.752149
PG32  18854.613724      7.246073  18915.892645     37.931614
*  2010  5  3  6 30  0.00000000
PG01  -9444.118468  23161.824696  -8861.465235   -115.345149
PG02      0.000000      0.000000      0.000000 999999.999999
PG03  19678.469953  10962.205233 -14696.547218    549.952861
PG04  -4394.230129 -24757.647126   7795.882954     73.518846
PG05 -10020.303668 -11884.122472 -21547.409395     -2.279970
PG06  15809.913293  13329.966776 -16561.299034    650.561680
PG07  10325.830201 -12434.421631 -21055.777028     -0.117495
PG08   2442.600406 -21813.666119 -14574.025137      5.206968
PG09 -17165.376325  -8599.523922  17835.080619      4.298682
PG10  -2185.295037 -18766.860078 -18708.560452    -41.707920
PG11  19435.201665   1773.929818  17894.317309    -60.206851
PG12 -19234.167939   5624.332164  17405.971727   -119.706290
PG13  21529.414385  -5677.601974 -14636.083992    304.811952
PG14  -2522.652155  14505.013144  22241.143816     41.139842
PG15 -24998.780748  -6845.797708  -6070.310662   -278.505919
PG16   4593.240170  16466.226882 -20206.816095    -67.661750
PG17   3267.895854 -14958.044459  21797.893857    148.333454
PG18      0.000000      0.000000      0.000000 999999.999999
PG19  25021.827874   8195.171102  -4548.420462    -32.250354
PG20  19758.467833  -8688.363589  15306.250785     56.737476
PG21  -8352.103008  16191.149100 -18782.441454    -57.556716
PG22 -10114.999133  23021.215059   8573.575729    173.038824
PG23  25986.703297  -1026.055887  -6190.053543    372.191968
PG24  -3458.252302  21672.121730 -15066.614350    284.108475
PG25      0.000000      0.000000      0.000000 999999.999999
PG26      0.000000      0.000000      0.000000 999999.999999
PG27 -18082.640670 -10837.606312  16928.334849    148.511782
PG28  11872.768508 -22636.267452   7106.347801    -17.136561
PG29 -21988.351769   6217.874308 -13411.859756    117.135693
PG30 -18726.585323  16296.657143   8976.188444    239.166256
PG31   6125.944136  25032.875207   6235.483698    -38.750102
PG32  17443.394798   1676.584678  20205.474392     37.923940
*  2010  5  3  6 45  0.00000000
PG01 -10120.750251  23726.258457  -6166.512306   -115.348832
PG02      0.000000      0.000000      0.000000 999999.999999
PG03  17958.428371  11235.893158 -16585.252726    549.957465
PG04  -3654.004898 -23918.649715  10358.565873     73.526418
PG05  -8593.837298 -13852.915071 -20972.162508     -2.280481
PG06  13782.188739  13448.892485 -18167.680079    650.552267
PG07  11407.980138 -10244.227067 -21682.391908     -0.117802
PG08   3226.580607 -20188.417579 -16664.813757      5.207173
PG09 -17957.478300 -10470.181518  16021.390952      4.300626
PG10   -853.337507 -20307.284534 -17093.156795    -41.708636
PG11  20511.109503   3504.792388  16431.759897    -60.209000
PG12 -18141.204953   3853.658656  19006.559623   -119.702402
PG13  23008.353367  -5323.894105 -12314.370667    304.811645
PG14  -4996.471600  14162.005258  22030.847400     41.143833
PG15 -24137.056815  -7038.809054  -8733.869710   -278.501007
PG16   3167.375891  18213.700556 -18919.440385    -67.665127
PG17   5706.309553 -14660.434257  21475.809932    148.335705
PG18      0.000000      0.000000      0.000000 999999.999999
PG19  24318.168872   8316.168580  -7272.835367    -32.252707
PG20  18909.958243  -6989.421764  17128.346321     56.736965
PG21  -9456.358830  14162.291579 -19904.592477    -57.559070
PG22 -10850.223687  23493.144995   5931.030533    173.037903
PG23  26506.123831   -771.484953  -3408.007134    372.190843
PG24  -4320.914585  20038.600275 -16952.950790    284.111340
PG25      0.000000      0.000000      0.000000 999999.999999
PG26      0.000000      0.000000      0.000000 999999.999999
PG27 -18784.035901 -12392.329008  14906.083357    148.514954
PG28  12423.879784 -22977.575281   4314.882079    -17.135742
PG29 -23368.931472   5839.610474 -11053.806543    117.138251
PG30 -18283.531248  15127.610020  11482.611550    239.169427
PG31   5581.377543  24352.876940   8955.066920    -38.748056
PG32  16043.073790   3509.665533  21154.558704     37.916266
EOF
